0 FENGYUN 1C DEB
1 31058U 99025BFC 13281.70252225  .00003338  00000-0  83677-3 0  2288
2 31058 099.5900 244.4395 0152684 340.0459 019.4770 14.45413708348935
0 FENGYUN 1C DEB
1 31058U 99025BFC 13285.71737008  .00003993  00000-0  99587-3 0  2295
2 31058 099.5920 248.9814 0153304 329.0246 030.2691 14.45450162349516
0 FENGYUN 1C DEB
1 31058U 99025BFC 13291.11647720  .00004602  00000-0  11397-2 0  2309
2 31058 099.5738 255.0571 0155277 312.6050 046.3895 14.45505081350296
0 FENGYUN 1C DEB
1 31058U 99025BFC 13292.08549316  .00004671  00000-0  11624-2 0  2318
2 31058 099.5834 256.1562 0152512 309.1853 049.6272 14.45515095350433
0 FENGYUN 1C DEB
1 31058U 99025BFC 13293.12374663  .00004672  00000-0  11624-2 0  2327
2 31058 099.5834 257.3276 0152499 306.1520 052.5638 14.45524908350588
0 FENGYUN 1C DEB
1 31058U 99025BFC 13293.67748335  .00004751  00000-0  11861-2 0  2330
2 31058 099.5891 257.9674 0150419 304.3306 054.3987 14.45531425350669
0 FENGYUN 1C DEB
1 31058U 99025BFC 13294.71572851  .00004887  00000-0  12171-2 0  2340
2 31058 099.5892 259.1376 0151340 301.5180 057.1307 14.45543176350816
